0 SL-8 DEB
1 21182U 91009AV  13281.49369454  .00000127  00000-0  12953-2 0  4157
2 21182 073.9992 199.5402 0154774 045.1912 067.3979 12.21407177  7128
0 SL-8 DEB
1 21182U 91009AV  13284.20561354  .00000155  00000-0  15517-2 0  4163
2 21182 073.9994 196.1183 0154872 041.3600 111.8650 12.21407992  7452
0 SL-8 DEB
1 21182U 91009AV  13286.71710815  .00000090  00000-0  95306-3 0  4173
2 21182 073.9994 192.9494 0154962 037.8105 355.0585 12.21409560  7767
0 SL-8 DEB
1 21182U 91009AV  13289.20166655  .00000222  00000-0  21579-2 0  4185
2 21182 073.9990 189.8143 0155043 034.2958 119.8348 12.21409038  8064
0 SL-8 DEB
1 21182U 91009AV  13292.15352640  .00000135  00000-0  13621-2 0  4197
2 21182 073.9984 186.0896 0155149 030.1293 139.3514 12.21410934  8424
0 SL-8 DEB
1 21182U 91009AV  13294.19946645  .00000033  00000-0  43756-3 0  4209
2 21182 073.9980 183.5077 0155233 027.2525 135.4763 12.21412499  8670
